[{"OBJECT_NAME":"GEESAT-4 10","OBJECT_ID":"2025-170K","EPOCH":"2026-03-09T23:21:58.377312","MEAN_MOTION":15.17890105,"ECCENTRICITY":0.0016786,"INCLINATION":49.9867,"RA_OF_ASC_NODE":229.1245,"ARG_OF_PERICENTER":279.3492,"MEAN_ANOMALY":80.5562,"EPHEMERIS_TYPE":0,"CLASSIFICATION_TYPE":"U","NORAD_CAT_ID":65128,"ELEMENT_SET_NO":999,"REV_AT_EPOCH":3230,"BSTAR":0.00064105503,"MEAN_MOTION_DOT":0.0001293,"MEAN_MOTION_DDOT":0},{"OBJECT_NAME":"FENGYUN 1C DEB","OBJECT_ID":"1999-025AMH","EPOCH":"2026-03-09T12:42:15.737184","MEAN_MOTION":15.14321833,"ECCENTRICITY":0.0006603,"INCLINATION":99.0205,"RA_OF_ASC_NODE":1.3766,"ARG_OF_PERICENTER":145.7382,"MEAN_ANOMALY":270.0225,"EPHEMERIS_TYPE":0,"CLASSIFICATION_TYPE":"U","NORAD_CAT_ID":30602,"ELEMENT_SET_NO":999,"REV_AT_EPOCH":99107,"BSTAR":0.010046779,"MEAN_MOTION_DOT":0.0018881,"MEAN_MOTION_DDOT":0}]
